HST                     
1 20580U 90037B   22088.86604823  .00002855  00000+0  15959-3 0  9992
2 20580  28.4712 336.0206 0002403 257.1879 154.3105 15.10185135554170
POLAR                   
1 23802U 96013A   22087.15887717  .00000207  00000+0  00000+0 0  9994
2 23802  78.7497 242.4279 5846865 261.6419  31.8426  1.29846827124839
SWAS                    
1 25560U 98071A   22088.66944781  .00001907  00000+0  18477-3 0  9994
2 25560  69.8993 187.1615 0004759  77.2049 282.9639 14.94478891266106
CXO                     
1 25867U 99040B   22091.35952416  .00000773  00000+0  00000+0 0  9994
2 25867  47.5352 240.4945 8729048 231.2440   0.3420  0.37806403 22664
XMM-NEWTON              
1 25989U 99066A   22090.70810672 -.00000080  00000+0  00000+0 0  9994
2 25989  70.2801 306.1524 6152473  87.6212 359.5822  0.50131882 15297
TERRA                   
1 25994U 99068A   22089.50560368  .00000402  00000+0  98992-4 0  9991
2 25994  98.1425 163.2165 0001369  96.4296 320.6099 14.57152732185122
CLUSTER II-FM7 (SAMBA)  
1 26410U 00041A   22089.73277397 -.00000068  00000+0  00000+0 0  9997
2 26410 133.8290 347.0055 5479147 197.8947   0.3642  0.44170939 13463
CLUSTER II-FM6 (SALSA)  
1 26411U 00041B   22091.96405031 -.00000120  00000+0  00000+0 0  9993
2 26411 135.6760 350.0655 7108542 202.5389   0.3679  0.44216766 24540
CLUSTER II-FM5 (RUMBA)  
1 26463U 00045A   22091.96817574 -.00000006  00000+0  00000+0 0  9996
2 26463 139.2563 350.3171 6629879 203.2598   0.3919  0.44216740 25814
CLUSTER II-FM8 (TANGO)  
1 26464U 00045B   22091.97227462  .00000010  00000+0  00000+0 0  9993
2 26464 133.8261 347.0224 5479253 197.9356   0.4026  0.44219158 61154
ODIN                    
1 26702U 01007A   22089.51335463  .00004205  00000+0  26754-3 0  9993
2 26702  97.5263 105.7098 0010110 190.8639 169.2373 15.09295390154970
TIMED                   
1 26998U 01055B   22089.00756212  .00000966  00000+0  10790-3 0  9999
2 26998  74.0712  77.8998 0002232 292.0629  68.0315 14.88517984101329
RHESSI                  
1 27370U 02004A   22088.81240934  .00024643  00000+0  60566-3 0  9990
2 27370  38.0324 138.1649 0010548 257.8537 102.1055 15.39842421114311
INTEGRAL                
1 27540U 02048A   22088.84528351 -.00000229  00000+0  00000+0 0  9990
2 27540  73.0059  64.3806 8939330 299.3505 174.9086  0.37568494 20844
CORIOLIS                
1 27640U 03001A   22089.63944503  .00000110  00000+0  73588-4 0  9994
2 27640  98.7206  99.8793 0013535 328.2231 141.0401 14.19111900995771
SORCE                   
1 27651U 03004A   22088.89563021  .00001448  00000+0  16216-3 0  9997
2 27651  39.9956 301.6379 0024569 273.5776  86.2203 14.89662166 41203
MOST                    
1 27843U 03031D   22088.98100634  .00000075  00000+0  55181-4 0  9997
2 27843  98.7103  97.7454 0010346  23.6685 336.4966 14.20668593971967
SCISAT 1                
1 27858U 03036A   22088.95260468  .00000534  00000+0  79900-4 0  9992
2 27858  73.9349 341.0498 0007079  30.2833 329.8749 14.77473492  3696
SWIFT                   
1 28485U 04047A   22088.81017706  .00004570  00000+0  27563-3 0  9993
2 28485  20.5566 149.2616 0010736  11.1364 348.9306 15.05820490951524
CLOUDSAT                
1 29107U 06016A   22088.85729604  .00000326  00000+0  73299-4 0  9997
2 29107  98.3199  48.3088 0003083 166.2977 193.8308 14.62854138847398
CALIPSO                 
1 29108U 06016B   22089.05816482  .00000988  00000+0  20319-3 0  9990
2 29108  98.3168  48.1134 0001288  80.2311 279.9036 14.62779208847430
HINODE (SOLAR-B)        
1 29479U 06041A   22089.06487787  .00000528  00000+0  10800-3 0  9996
2 29479  98.1265 105.2205 0019847 114.4571 245.8704 14.64722165829143
SJ-6C                   
1 29505U 06046A   22089.42848145  .00002268  00000+0  20897-3 0  9990
2 29505  97.7855 110.9620 0005666  42.7078 317.4582 14.95695438840886
SJ-6D                   
1 29506U 06046B   22089.51125556  .00000951  00000+0  94988-4 0  9995
2 29506  97.8043 111.2366 0003516 107.7763 252.3844 14.93831234840357
AGILE                   
1 31135U 07013A   22088.01776262  .00011942  00000+0  29386-3 0  9992
2 31135   2.4667 145.5770 0010960 265.3740  94.5062 15.36061696464555
AIM                     
1 31304U 07015A   22088.71585810  .00009220  00000+0  48007-3 0  9993
2 31304  97.8574   5.0248 0003453 303.4189  56.6712 15.16248268819104
FGRST (GLAST)           
1 33053U 08029A   22089.04360333  .00002209  00000+0  10854-3 0  9999
2 33053  25.5837 348.5627 0011993 341.4315  18.5782 15.11915910761889
WISE                    
1 36119U 09071A   22088.82883533  .00007107  00000+0  22929-3 0  9998
2 36119  97.2504 124.8583 0001819 176.9704 183.1549 15.32446009683308
SDO                     
1 36395U 10005A   22089.51299243 -.00000057  00000+0  00000+0 0  9999
2 36395  31.5019 110.4948 0002101 248.7285 271.4258  1.00274299 44599
CRYOSAT 2               
1 36508U 10013A   22088.92741754  .00000241  00000+0  58995-4 0  9992
2 36508  92.0245 264.7967 0006866 139.9537 220.2177 14.51902765634598
X-SAT                   
1 37389U 11015C   22089.41322177  .00000026  00000+0  29055-4 0  9998
2 37389  98.3453 126.6554 0014140 178.7955 181.3269 14.24409187568958
GCOM-W1 (SHIZUKU)       
1 38337U 12025A   22089.47217604  .00000541  00000+0  13010-3 0  9993
2 38337  98.1964  31.1870 0002049  91.5343  23.2664 14.57118287524809
NUSTAR                  
1 38358U 12031A   22087.28303531  .00002856  00000+0  22155-3 0  9996
2 38358   6.0260 234.1994 0012422 248.8809 110.9992 14.88998158532737
NEOSSAT                 
1 39089U 13009D   22089.09044261  .00000183  00000+0  79781-4 0  9996
2 39089  98.4277 287.3594 0011911 148.8469 211.3424 14.34631325475846
BRITE-AUSTRIA           
1 39091U 13009F   22088.80992493  .00000165  00000+0  72354-4 0  9995
2 39091  98.4114 288.1581 0011045 149.9306 210.2516 14.35241819476009
IRIS                    
1 39197U 13033A   22088.76063784  .00000868  00000+0  12388-3 0  9996
2 39197  97.9699 275.3157 0026201 287.6781  72.1570 14.79087741472193
HISAKI (SPRINT-A)       
1 39253U 13049A   22089.48658125  .00000161  00000+0  13075-3 0  9995
2 39253  29.7185 126.0401 0137161 137.1106 224.0254 13.55267758423421
CASSIOPE                
1 39265U 13055A   22088.89362682  .00010836  00000+0  29438-3 0  9999
2 39265  80.9696 351.5829 0631344 193.6056 164.7415 14.36480521440908
STSAT-3                 
1 39422U 13066G   22088.65918211  .00001669  00000+0  17666-3 0  9999
2 39422  97.4726  98.1126 0022760 183.5544 176.5497 14.90241673453953
SWARM B                 
1 39451U 13067A   22089.49397477  .00002958  00000+0  12987-3 0  9993
2 39451  87.7447  84.9417 0002737  94.5971 265.5587 15.21555914463557
SWARM A                 
1 39452U 13067B   22088.86859767  .00009319  00000+0  17985-3 0  9990
2 39452  87.3559 253.5122 0002562  74.3362 285.8180 15.47644851469648
SWARM C                 
1 39453U 13067C   22088.86849585  .00009344  00000+0  18033-3 0  9991
2 39453  87.3412 253.1454 0002557  74.5487 285.6054 15.47646764469604
BRITE-CA1 (TORONTO)     
1 40020U 14033L   22089.43265602  .00001097  00000+0  19336-3 0  9997
2 40020  97.7679 252.4625 0087688 154.7783 205.7743 14.66915891416189
OCO 2                   
1 40059U 14035A   22088.89754010  .00000429  00000+0  10523-3 0  9993
2 40059  98.1955  31.3610 0001217  81.3374 278.7962 14.57117883411741
BRITE-PL2 (HEWELIUSZ)   
1 40119U 14049B   22089.50960744  .00001550  00000+0  18789-3 0  9995
2 40119  97.8800 185.9779 0018307 137.5564 222.7070 14.84921230412387
RESURS P2               
1 40360U 14087A   22089.47832029  .00005140  00000+0  15031-3 0  9991
2 40360  97.2084 176.0069 0009932  23.2184 107.0646 15.35657646406133
MMS 1                   
1 40482U 15011A   22083.25923858 -.00001483  00000+0  00000+0 0  9998
2 40482  32.8960 108.8074 8574489  47.1161  23.3626  0.28441540 13050
MMS 2                   
1 40483U 15011B   22082.99446772 -.00001461  00000+0  00000+0 0  9990
2 40483  32.8822 108.8213 8573396  47.1223 356.2376  0.28434853 13114
MMS 3                   
1 40484U 15011C   22079.71086736 -.00001110  00000+0  00000+0 0  9998
2 40484  32.9610 109.0879 8577744  46.8407  20.2453  0.28453073 12795
MMS 4                   
1 40485U 15011D   22083.25923858 -.00001483  00000+0  00000+0 0  9991
2 40485  32.8956 108.8107 8573060  47.1143  23.3518  0.28441490 13031
ASTROSAT                
1 40930U 15052A   22089.03989521  .00001525  00000+0  12449-3 0  9992
2 40930   5.9978  24.5472 0008206 113.6842 246.4147 14.76543129351448
DAMPE                   
1 41173U 15078A   22089.44933851  .00000875  00000+0  38636-4 0  9994
2 41173  97.3737  81.4513 0015288 115.1165  36.5657 15.24261972349546
PISAT                   
1 41784U 16059B   22089.39694604  .00000772  00000+0  15578-3 0  9991
2 41784  97.9264 135.7898 0032964  61.0280 299.4221 14.63794292294129
HXMT (HUIYAN)           
1 42758U 17034A   22089.38649058  .00002480  00000+0  16368-3 0  9995
2 42758  43.0168  63.0129 0007254 151.1068 339.4235 15.09907686264227
FLYING LAPTOP           
1 42831U 17042G   22089.50971519  .00001598  00000+0  16428-3 0  9996
2 42831  97.4347 308.5181 0012242 272.3228  87.6584 14.91593443256326
PICSAT                  
1 43132U 18004X   22088.78188720  .00013462  00000+0  48142-3 0  9994
2 43132  97.3776 165.7189 0006773 279.9432  80.1043 15.28904167234222
ZHANGZHENG-1 (CSES)     
1 43194U 18015C   22089.44923944  .00007181  00000+0  32749-3 0  9990
2 43194  97.5091 220.3757 0010564  25.8098  59.4628 15.20892532230611
ICON                    
1 44628U 19068A   22089.33980676  .00003074  00000+0  27264-3 0  9998
2 44628  26.9891 105.5532 0018547 204.0941 155.8749 14.92457282134727
SALSAT                  
1 46495U 20068K   22088.80759121  .00002069  00000+0  15369-3 0  9990
2 46495  97.7222  30.1450 0016522 180.9996 179.1199 15.04050705 82217
IXPE                    
1 49954U 21121A   22087.28633320  .00002765  00000+0  19707-3 0  9990
2 49954   0.2298 258.5089 0011197 181.2717 280.3456 14.91008339 16291
